STARLINK-2022           
1 47643U 21012Z   23300.78297566  .00006191  00000+0  43389-3 0  9994
2 47643  53.0548 329.8474 0001652  92.0929 268.0249 15.06424029150058
